STARLINK-34704          
1 65746U 25216N   25280.58413833  .00491748  00000+0  25099-2 0  9995
2 65746  53.1525 328.9622 0001211 146.9726 213.1372 15.79481875  3022
STARLINK-35214          
1 65747U 25216P   25280.58453214  .00481272  00000+0  24539-2 0  9992
2 65747  53.1528 328.9647 0001930 193.0843 167.0129 15.79534184  3034
STARLINK-35265          
1 65748U 25216Q   25280.58340644  .00484913  00000+0  24812-2 0  9994
2 65748  53.1528 328.9575 0000786 126.9348 233.1746 15.79443685  1952
STARLINK-35288          
1 65749U 25216R   25280.51970443  .00310898  00000+0  16068-2 0  9998
2 65749  53.1529 329.2706 0002345  46.6552 313.4665 15.79694494  2995
STARLINK-35165          
1 65750U 25216S   25280.58221903  .00438225  00000+0  22641-2 0  9996
2 65750  53.1533 328.9493 0001482 172.6140 187.4904 15.79357118  3002
STARLINK-35260          
1 65751U 25216T   25280.58185162  .00349772  00000+0  18297-2 0  9993
2 65751  53.1529 328.9465 0001281 168.8248 191.2802 15.79321362  3035
STARLINK-34893          
1 65752U 25216U   25280.58378130  .00505216  00000+0  25748-2 0  9999
2 65752  53.1529 328.9598 0000881 139.9606 220.1481 15.79478066  3001
STARLINK-34894          
1 65753U 25216V   25280.58260825  .00383972  00000+0  19947-2 0  9998
2 65753  53.1533 328.9523 0001294 177.5140 182.5888 15.79381959  3001
STARLINK-35287          
1 65754U 25216W   25280.58105104  .00400352  00000+0  20877-2 0  9993
2 65754  53.1533 328.9413 0001012 157.1740 202.9327 15.79253654  2990
STARLINK-35294          
1 65755U 25216X   25280.58145523  .00417003  00000+0  21654-2 0  9998
2 65755  53.1531 328.9443 0000675 163.4164 196.6880 15.79301235  3034
STARLINK-35275          
1 65756U 25216Y   25280.57986841  .00590009  00000+0  30198-2 0  9995
2 65756  53.1524 328.9326 0001512  32.6052 327.5063 15.79157610  3035
STARLINK-35211          
1 65757U 25216Z   25280.57949019  .00383711  00000+0  20186-2 0  9998
2 65757  53.1525 328.9302 0000573 192.1493 167.9515 15.79102498  3030
STARLINK-35313          
1 65758U 25216AA  25280.57909063  .00423795  00000+0  22228-2 0  9990
2 65758  53.1531 328.9281 0001157 190.8785 169.2212 15.79061532  2998
STARLINK-34692          
1 65759U 25216AB  25280.57867021  .00428480  00000+0  22529-2 0  9998
2 65759  53.1528 328.9254 0000941 193.2336 166.8661 15.78994522  2998
STARLINK-34890          
1 65760U 25216AC  25280.58066191  .00453344  00000+0  23515-2 0  9993
2 65760  53.1531 328.9387 0000820 191.2111 168.8892 15.79227461  3021
STARLINK-34889          
1 65761U 25216AD  25280.51697102  .00593405  00000+0  29912-2 0  9999
2 65761  53.1537 329.2521 0003272  43.6610 316.4670 15.79489031  3073
KUIPER-00120            
1 65762U 25217A   25268.69913116  .00076857  00000+0  23007-2 0  9998
2 65762  51.8675  81.4801 0010991 119.3525 240.8559 15.33791109    44
KUIPER-00132            
1 65763U 25217B   25280.66670139  .00067629  00000+0  19482-2 0  9994
2 65763  51.8672  23.8215 0006657 143.5664 144.8257 15.35095353  1306
KUIPER-00133            
1 65764U 25217C   25280.66670139  .00064690  00000+0  19064-2 0  9996
2 65764  51.8676  23.8759 0008791 152.7466 108.7604 15.34385050  2511
KUIPER-00139            
1 65765U 25217D   25280.66670139  .00065162  00000+0  18899-2 0  9997
2 65765  51.8697  23.8387 0007493 146.8616 133.1772 15.34895348  3055
KUIPER-00142            
1 65766U 25217E   25280.66670139  .00066161  00000+0  18488-2 0  9992
2 65766  51.8725  23.7321 0003769 111.3509 220.8691 15.36070735  1953
KUIPER-00145            
1 65767U 25217F   25280.66670139  .00064834  00000+0  18232-2 0  9995
2 65767  51.8740  23.7470 0004297 119.4671 204.5437 15.35882577  1302
KUIPER-00147            
1 65768U 25217G   25280.66670139  .00064051  00000+0  18523-2 0  9990
2 65768  51.8684  23.8305 0007465 141.1038 142.8603 15.34993586  2815
KUIPER-00148            
1 65769U 25217H   25280.66670139  .00066618  00000+0  19705-2 0  9995
2 65769  51.8639  23.8889 0010441 153.3154 100.8681 15.34239338  2969
KUIPER-00150            
1 65770U 25217J   25280.66670139  .00063702  00000+0  18760-2 0  9998
2 65770  51.8626  23.8777 0009387 154.2566 105.0812 15.34409881  1433
KUIPER-00151            
1 65771U 25217K   25280.66670139  .00064454  00000+0  18247-2 0  9994
2 65771  51.8721  23.7694 0005733 125.2442 188.6176 15.35668369  3025
KUIPER-00152            
1 65772U 25217L   25280.66670139  .00064364  00000+0  17573-2 0  9996
2 65772  51.8750  23.6584 0002432  60.9414 302.8040 15.36809827  2758
KUIPER-00153            
1 65773U 25217M   25280.66670139  .00064439  00000+0  18904-2 0  9999
2 65773  51.8664  23.8617 0009025 147.0985 121.0280 15.34528840  2878
KUIPER-00155            
1 65774U 25217N   25280.66670139  .00071574  00000+0  20443-2 0  9999
2 65774  51.8692  23.7973 0005930 135.9266 164.5322 15.35341435  1459
KUIPER-00156            
1 65775U 25217P   25280.66670139  .00061227  00000+0  16904-2 0  9991
2 65775  51.8751  23.6888 0002709  88.3817 262.0397 15.36485005  2757
KUIPER-00158            
1 65776U 25217Q   25280.66670139  .00062942  00000+0  17879-2 0  9999
2 65776  51.8730  23.7772 0005644 131.6671 178.0963 15.35573848  1306
KUIPER-00163            
1 65777U 25217R   25280.66670139  .00064323  00000+0  18743-2 0  9996
2 65777  51.8650  23.8496 0008351 149.2760 124.7264 15.34746431  2980
KUIPER-00165            
1 65778U 25217S   25280.66670139  .00065781  00000+0  18439-2 0  9998
2 65778  51.8732  23.7395 0004452 110.3384 217.7836 15.35975460  2758
KUIPER-00166            
1 65779U 25217T   25280.66670139  .00064521  00000+0  17914-2 0  9997
2 65779  51.8742  23.7109 0003664  94.0063 247.3950 15.36284514  3053
KUIPER-00167            
1 65780U 25217U   25280.66670139  .00064842  00000+0  18620-2 0  9990
2 65780  51.8713  23.8104 0006377 140.0623 153.8832 15.35217093  2806
KUIPER-00168            
1 65781U 25217V   25280.66670139  .00063408  00000+0  17216-2 0  9998
2 65781  51.8748  23.6451 0001850  33.4616 338.9259 15.36990787  1308
KUIPER-00169            
1 65782U 25217W   25280.66670139  .00063489  00000+0  17696-2 0  9990
2 65782  51.8747  23.7178 0003429 108.2302 229.1381 15.36171908  2452
KUIPER-00170            
1 65783U 25217X   25280.66670139  .00065959  00000+0  18881-2 0  9992
2 65783  51.8702  23.8012 0006817 134.0582 164.3687 15.35305553  1309
KUIPER-00171            
1 65784U 25217Y   25280.66670139  .00066098  00000+0  18604-2 0  9991
2 65784  51.8708  23.7577 0004821 125.2364 194.6613 15.35843471  2003
KUIPER-00172            
1 65785U 25217Z   25280.66670139  .00063115  00000+0  17363-2 0  9990
2 65785  51.8749  23.6797 0002646  82.0820 273.6364 15.36583372  2151
KUIPER-00173            
1 65786U 25217AA  25280.66670139  .00065450  00000+0  18112-2 0  9998
2 65786  51.8734  23.7036 0002958  94.8931 250.7296 15.36381802  2292
KUIPER-00174            
1 65787U 25217AB  25280.66670139  .00064303  00000+0  17510-2 0  9996
2 65787  51.8749  23.6509 0002454  44.0901 324.4061 15.36892766  2619
KUIPER-00176            
1 65788U 25217AC  25280.66670139  .00066121  00000+0  18122-2 0  9997
2 65788  51.8744  23.6772 0002277  68.4459 289.2537 15.36678251  1456
STARLINK-35330          
1 65791U 25218A   25280.58335648 -.00156040  00000+0 -95265-3 0  9992
2 65791  97.5961 140.3790 0001391  75.6311 351.3841 15.77714058  3045
STARLINK-35373          
1 65792U 25218B   25280.58335648 -.00145650  00000+0 -88861-3 0  9992
2 65792  97.5964 140.3802 0001452  99.0784 329.8677 15.77700975  3045
STARLINK-35383          
1 65793U 25218C   25280.58335648 -.00076464  00000+0 -46320-3 0  9993
2 65793  97.5965 140.3821 0001802  90.8901 341.9129 15.77660196  3044
STARLINK-35378          
1 65794U 25218D   25280.58335648 -.00037815  00000+0 -22776-3 0  9990
2 65794  97.5959 140.3822 0001768  99.8661 334.8557 15.77644674  2781
STARLINK-35406          
1 65795U 25218E   25280.58335648 -.00095156  00000+0 -57757-3 0  9990
2 65795  97.5961 140.3808 0001566  78.0333 352.8447 15.77673394  3049
STARLINK-35390          
1 65796U 25218F   25280.58335648 -.00045441  00000+0 -27406-3 0  9991
2 65796  97.5967 140.3848 0001224  76.3931   2.1645 15.77651138  2930
STARLINK-35412          
1 65797U 25218G   25280.58335648 -.00084528  00000+0 -51248-3 0  9992
2 65797  97.5960 140.3847 0001422  77.1414   3.3401 15.77667258  3044
STARLINK-35414          
1 65798U 25218H   25280.58335648 -.00035998  00000+0 -21670-3 0  9996
2 65798  97.5966 140.3840 0001207  69.2376   7.3953 15.77649948  3046
STARLINK-35357          
1 65799U 25218J   25280.58335648 -.00105937  00000+0 -64386-3 0  9999
2 65799  97.5964 140.3867 0001592  92.3542 351.9714 15.77674721  3043
STARLINK-35300          
1 65800U 25218K   25280.58335648 -.00103974  00000+0 -63169-3 0  9999
2 65800  97.5960 140.3856 0001786  84.8469 357.5559 15.77676833  2896
STARLINK-35296          
1 65801U 25218L   25280.58335647  .00070001  00000+0  41977-3 0  9994
2 65801  97.5960 140.3878 0002434  87.6253   0.5179 15.77594855  3048
STARLINK-34919          
1 65802U 25218M   25280.58335648 -.00104012  00000+0 -63201-3 0  9992
2 65802  97.5961 140.3874 0001653  88.5797 357.6668 15.77674330  3047
STARLINK-35286          
1 65803U 25218N   25280.58335648 -.00115081  00000+0 -70005-3 0  9991
2 65803  97.5962 140.3891 0001987  93.5391 356.5455 15.77679845  3042
STARLINK-35266          
1 65804U 25218P   25280.58335648 -.00029350  00000+0 -17629-3 0  9998
2 65804  97.5962 140.3900 0001385 106.1903 345.7832 15.77660985  3040
STARLINK-35273          
1 65805U 25218Q   25280.58335648 -.00137665  00000+0 -83928-3 0  9993
2 65805  97.5953 140.3897 0001411  96.1352 357.7843 15.77695332  3041
STARLINK-35047          
1 65806U 25218R   25280.58335648 -.00110130  00000+0 -66907-3 0  9990
2 65806  97.5958 140.3916 0001906  78.0282  19.7153 15.77694874  3048
